COSMOS 2425 (716)       
1 29670U 06062A   18024.51699955 -.00000014  00000-0  10000-3 0  9992
2 29670  65.3518 297.3931 0022702 344.7314  27.2636  2.13104928 86254
COSMOS 2426 (717)       
1 29671U 06062B   18024.38123382 -.00000014  00000-0  10000-3 0  9994
2 29671  65.3686 297.4940 0016184 166.1805 318.4272  2.13103097 86257
COSMOS 2433 (720)       
1 32275U 07052A   18023.97210947 -.00000006  00000-0  10000-3 0  9997
2 32275  65.6188  58.2038 0004670 264.8551 240.8725  2.13104762 79751
COSMOS 2432 (719)       
1 32276U 07052B   18023.55529612 -.00000007  00000-0  10000-3 0  9995
2 32276  65.6300  58.2945 0012132 325.5669 172.6880  2.13103944 79746
COSMOS 2434 (721)       
1 32393U 07065A   18023.60702896 -.00000011  00000-0  00000-0 0  9993
2 32393  64.9668 296.4679 0002981  94.4463  19.7397  2.13102890 78450
COSMOS 2436 (723)       
1 32395U 07065C   18024.05066888 -.00000013  00000-0  10000-3 0  9995
2 32395  64.9761 296.5019 0016351 357.4412 146.8772  2.13104270 78393
COSMOS 2456 (730)       
1 36111U 09070A   18023.77845001  .00000091  00000-0  00000-0 0  9994
2 36111  64.1839 176.0370 0003204 347.4181  70.1406  2.13102859 63127
COSMOS 2457 (733)       
1 36112U 09070B   18023.64042119  .00000091  00000-0  00000-0 0  9990
2 36112  64.1648 175.9549 0006968 148.8238 290.4149  2.13101569 63126
COSMOS 2458 (734)       
1 36113U 09070C   18024.27504208  .00000090  00000-0  10000-3 0  9996
2 36113  64.1711 175.9431 0003025  58.1401 196.1484  2.13102043 63137
COSMOS 2459 (731)       
1 36400U 10007A   18024.42332753 -.00000005  00000-0  10000-3 0  9995
2 36400  65.5284  57.2676 0027214 347.5204   4.4969  2.13102182 61480
COSMOS 2461 (735)       
1 36401U 10007B   18023.62844483 -.00000007  00000-0  10000-3 0  9997
2 36401  65.5191  57.2719 0004759  58.2398 314.5662  2.13102114 61474
COSMOS 2460 (732)       
1 36402U 10007C   18024.22869981 -.00000005  00000-0  10000-3 0  9993
2 36402  65.5108  57.2194 0001999 273.8340 240.3842  2.13101728 61482
COSMOS 2464 (736)       
1 37139U 10041C   18024.21565272 -.00000013  00000-0  00000+0 0  9998
2 37139  64.5693 296.3234 0024647  10.0745  78.7942  2.13102736 57551
COSMOS 2471 (701K)      
1 37372U 11009A   18023.48765272 -.00000007  00000-0  00000+0 0  9995
2 37372  65.5074  57.1923 0009521 238.3407 208.2391  2.13107708 53745
COSMOS 2474 (742)       
1 37829U 11055A   18023.55352123  .00000092  00000-0  00000-0 0  9992
2 37829  64.5077 176.7005 0006346 240.0397 223.7525  2.13101881 49116
COSMOS 2476 (744)       
1 37867U 11064A   18024.33279834  .00000092  00000-0  00000+0 0  9997
2 37867  64.4875 176.7400 0015963 238.3226 149.3003  2.13101954 48482
COSMOS 2477 (745)       
1 37868U 11064B   18023.77443810  .00000092  00000-0  00000+0 0  9992
2 37868  64.4963 176.8062 0013702 239.3733 258.9043  2.13101752 48420
COSMOS 2475 (743)       
1 37869U 11064C   18023.99824949  .00000092  00000-0  00000+0 0  9993
2 37869  64.5030 176.7911 0017972 269.1732 357.4159  2.13101946 48431
COSMOS 2485 (747)       
1 39155U 13019A   18024.37096301  .00000092  00000-0  00000+0 0  9991
2 39155  64.6570 176.8168 0016503 232.7899 229.0668  2.13101960 36954
COSMOS 2492 (754)       
1 39620U 14012A   18023.83150600 -.00000007  00000-0  10000-3 0  9997
2 39620  65.4008  57.1393 0015529 323.3771 119.1725  2.13103430 29892
COSMOS 2500 (755)       
1 40001U 14032A   18024.08212491 -.00000006  00000-0  00000+0 0  9993
2 40001  65.3410  57.1123 0007207 221.4184 275.9622  2.13102756 28115
COSMOS 2501 (702K)      
1 40315U 14075A   18023.77600998 -.00000014  00000-0  00000-0 0  9996
2 40315  64.2967 297.6036 0014858 211.5499 214.2970  2.13098457 24515
COSMOS 2514 (751)       
1 41330U 16008A   18023.68469258 -.00000008  00000-0  00000-0 0  9997
2 41330  65.1429  57.2140 0010724 225.2211 147.8237  2.13103341 15273
COSMOS 2516 (753)       
1 41554U 16032A   18023.89810571 -.00000014  00000-0  00000-0 0  9990
2 41554  64.5156 297.4253 0011457 227.0009 201.3663  2.13101722 12887
COSMOS 2522 (752)       
1 42939U 17055A   18023.53433044 -.00000013  00000-0  00000-0 0  9990
2 42939  64.7470 297.3603 0007822 259.2143 116.4694  2.13102002  2635
